[{"OBJECT_NAME":"STARLINK-3506","OBJECT_ID":"2022-016AP","EPOCH":"2026-03-09T21:52:42.896640","MEAN_MOTION":15.08845637,"ECCENTRICITY":0.00018898,"INCLINATION":53.2186,"RA_OF_ASC_NODE":308.1356,"ARG_OF_PERICENTER":77.7175,"MEAN_ANOMALY":282.4028,"EPHEMERIS_TYPE":0,"CLASSIFICATION_TYPE":"U","NORAD_CAT_ID":51751,"ELEMENT_SET_NO":999,"REV_AT_EPOCH":22373,"BSTAR":-0.00013442087,"MEAN_MOTION_DOT":-2.427e-5,"MEAN_MOTION_DDOT":0},{"OBJECT_NAME":"COSMOS 2251 DEB","OBJECT_ID":"1993-036BLZ","EPOCH":"2026-03-06T21:00:05.608224","MEAN_MOTION":14.97960044,"ECCENTRICITY":0.00597249,"INCLINATION":73.9479,"RA_OF_ASC_NODE":151.0759,"ARG_OF_PERICENTER":149.7591,"MEAN_ANOMALY":210.7065,"EPHEMERIS_TYPE":0,"CLASSIFICATION_TYPE":"U","NORAD_CAT_ID":37496,"ELEMENT_SET_NO":999,"REV_AT_EPOCH":67275,"BSTAR":0.0022465948,"MEAN_MOTION_DOT":0.00027564,"MEAN_MOTION_DDOT":0}]
